Brorfelde,e,21.13003,29.25545,218.36510,1.8175920,0.40221612,0.0534434,94.59571,11/5/1990,1950.0,13.90,0.25
Brouwer,e,8.37678,321.89089,50.07468,3.9602050,0.12506264,0.2022198,142.03440,11/5/1990,1950.0,9.91,0.15
Brown,e,3.52557,288.10910,88.11861,2.4896529,0.25089723,0.1995735,329.78556,11/5/1990,1950.0,12.60,0.25
Bruce Helin,e,23.41602,45.44877,309.12392,2.3621912,0.27147604,0.2155981,243.07104,11/5/1990,1950.0,12.20,0.25
Bruchsalia,e,12.03575,76.14123,272.28107,2.6558494,0.22771882,0.2927297,241.59305,11/5/1990,1950.0,8.96,0.15
Brucia,e,24.24742,96.93713,291.36594,2.3818839,0.26811629,0.3003134,359.03750,11/5/1990,1950.0,9.67,0.25
Bruckner,e,10.42293,23.55070,75.44741,3.0177539,0.18800887,0.0755918,99.91810,11/5/1990,1950.0,11.50,0.25
Bruna,e,22.31343,10.04090,104.87946,2.3366877,0.27593263,0.2590352,99.22054,11/5/1990,1950.0,12.10,0.25
Brunhild,e,6.41212,307.49274,123.78207,2.6948368,0.22279496,0.1207567,165.14196,11/5/1990,1950.0,8.93,0.25
Brunk,e,0.73020,191.78961,47.18492,3.1110798,0.17961283,0.1187078,260.74674,11/5/1990,1950.0,12.25,0.15
Brunonia,e,1.66130,189.70308,223.65513,2.8446800,0.20542531,0.0560356,248.34609,11/5/1990,1950.0,12.07,0.25
Brunsia,e,3.44709,264.79277,67.63529,2.2236930,0.29722945,0.2217396,278.19729,11/5/1990,1950.0,11.79,0.25
Bruwer,e,8.51434,167.85976,136.40271,3.1513157,0.17618389,0.0911882,193.12918,11/5/1990,1950.0,11.10,0.25
Bruxelles,e,5.50771,190.17900,10.72379,2.2318447,0.29560251,0.1184021,207.19542,11/5/1990,1950.0,13.87,0.25
Bryan,e,6.88971,61.99775,300.51825,2.2645182,0.28922802,0.2237741,76.18451,11/5/1990,1950.0,14.00,0.25
Buchwald,e,5.23301,127.79487,30.84872,2.1921485,0.30366805,0.0530578,237.24367,11/5/1990,1950.0,13.50,0.25
SHAR_EOF
true || echo 'restore of ephem.db failed'
fi
echo 'End of  part 13'
echo 'File ephem.db is continued in part 14'
echo 14 > _shar_seq_.tmp
exit 0
-- 
--
Molecular Simulations, Inc.			mail: dcmartin@msi.com
796 N. Pastoria Avenue				uucp: uunet!dcmartin
Sunnyvale, California 94086			at&t: 408/522-9236
